[{"CCSDS_OMM_VERS":"2.0","COMMENT":"GENERATED VIA SPACE-TRACK.ORG API","CREATION_DATE":"2021-02-10T22:09:26","ORIGINATOR":"18 SPCS","OBJECT_NAME":"ONEWEB-0135","OBJECT_ID":"2020-100Z","CENTER_NAME":"EARTH","REF_FRAME":"TEME","TIME_SYSTEM":"UTC","MEAN_ELEMENT_THEORY":"SGP4","EPOCH":"2021-02-10T14:00:01.000224","MEAN_MOTION":"14.50024610","ECCENTRICITY":"0.00148560","INCLINATION":"87.5647","RA_OF_ASC_NODE":"21.4437","ARG_OF_PERICENTER":"66.0398","MEAN_ANOMALY":"259.3879","EPHEMERIS_TYPE":"0","CLASSIFICATION_TYPE":"U","NORAD_CAT_ID":"47281","ELEMENT_SET_NO":"999","REV_AT_EPOCH":"177","BSTAR":"-0.41891000000000","MEAN_MOTION_DOT":"-0.01507696","MEAN_MOTION_DDOT":"0.0000000000000","SEMIMAJOR_AXIS":"7103.705","PERIOD":"99.309","APOAPSIS":"736.123","PERIAPSIS":"715.017","OBJECT_TYPE":"PAYLOAD","RCS_SIZE":"MEDIUM","COUNTRY_CODE":"UK","LAUNCH_DATE":"2020-12-18","SITE":"VOSTO","DECAY_DATE":null,"FILE":"2957136","GP_ID":"171491233","TLE_LINE0":"0 ONEWEB-0135","TLE_LINE1":"1 47281U 20100Z   21041.58334491 -.01507696  00000-0 -41891+0 0  9998","TLE_LINE2":"2 47281  87.5647  21.4437 0014856  66.0398 259.3879 14.50024610  1779"},{"CCSDS_OMM_VERS":"2.0","COMMENT":"GENERATED VIA SPACE-TRACK.ORG API","CREATION_DATE":"2021-02-11T05:11:47","ORIGINATOR":"18 SPCS","OBJECT_NAME":"ONEWEB-0135","OBJECT_ID":"2020-100Z","CENTER_NAME":"EARTH","REF_FRAME":"TEME","TIME_SYSTEM":"UTC","MEAN_ELEMENT_THEORY":"SGP4","EPOCH":"2021-02-10T22:00:00.999936","MEAN_MOTION":"14.48957884","ECCENTRICITY":"0.00149960","INCLINATION":"87.5666","RA_OF_ASC_NODE":"21.3474","ARG_OF_PERICENTER":"65.2581","MEAN_ANOMALY":"198.4264","EPHEMERIS_TYPE":"0","CLASSIFICATION_TYPE":"U","NORAD_CAT_ID":"47281","ELEMENT_SET_NO":"999","REV_AT_EPOCH":"173","BSTAR":"-0.39786000000000","MEAN_MOTION_DOT":"-0.01406987","MEAN_MOTION_DDOT":"0.0000000000000","SEMIMAJOR_AXIS":"7107.191","PERIOD":"99.382","APOAPSIS":"739.714","PERIAPSIS":"718.398","OBJECT_TYPE":"PAYLOAD","RCS_SIZE":"MEDIUM","COUNTRY_CODE":"UK","LAUNCH_DATE":"2020-12-18","SITE":"VOSTO","DECAY_DATE":null,"FILE":"2957427","GP_ID":"171519873","TLE_LINE0":"0 ONEWEB-0135","TLE_LINE1":"1 47281U 20100Z   21041.91667824 -.01406987  00000-0 -39786+0 0  9995","TLE_LINE2":"2 47281  87.5666  21.3474 0014996  65.2581 198.4264 14.48957884  1732"},{"CCSDS_OMM_VERS":"2.0","COMMENT":"GENERATED VIA SPACE-TRACK.ORG API","CREATION_DATE":"2021-02-11T14:36:11","ORIGINATOR":"18 SPCS","OBJECT_NAME":"ONEWEB-0135","OBJECT_ID":"2020-100Z","CENTER_NAME":"EARTH","REF_FRAME":"TEME","TIME_SYSTEM":"UTC","MEAN_ELEMENT_THEORY":"SGP4","EPOCH":"2021-02-11T12:00:02.000160","MEAN_MOTION":"14.47213310","ECCENTRICITY":"0.00151000","INCLINATION":"87.5697","RA_OF_ASC_NODE":"21.1780","ARG_OF_PERICENTER":"62.6307","MEAN_ANOMALY":"0.0957","EPHEMERIS_TYPE":"0","CLASSIFICATION_TYPE":"U","NORAD_CAT_ID":"47281","ELEMENT_SET_NO":"999","REV_AT_EPOCH":"831","BSTAR":"-0.43592000000000","MEAN_MOTION_DOT":"-0.01480716","MEAN_MOTION_DDOT":"0.0000000000000","SEMIMAJOR_AXIS":"7112.902","PERIOD":"99.502","APOAPSIS":"745.507","PERIAPSIS":"724.026","OBJECT_TYPE":"PAYLOAD","RCS_SIZE":"MEDIUM","COUNTRY_CODE":"UK","LAUNCH_DATE":"2020-12-18","SITE":"VOSTO","DECAY_DATE":null,"FILE":"2957891","GP_ID":"171531742","TLE_LINE0":"0 ONEWEB-0135","TLE_LINE1":"1 47281U 20100Z   21042.50002315 -.01480716  00000-0 -43592+0 0  9991","TLE_LINE2":"2 47281  87.5697  21.1780 0015100  62.6307   0.0957 14.47213310  8315"},{"CCSDS_OMM_VERS":"2.0","COMMENT":"GENERATED VIA SPACE-TRACK.ORG API","CREATION_DATE":"2021-02-11T18:37:10","ORIGINATOR":"18 SPCS","OBJECT_NAME":"ONEWEB-0135","OBJECT_ID":"2020-100Z","CENTER_NAME":"EARTH","REF_FRAME":"TEME","TIME_SYSTEM":"UTC","MEAN_ELEMENT_THEORY":"SGP4","EPOCH":"2021-02-11T14:00:01.000224","MEAN_MOTION":"14.46956183","ECCENTRICITY":"0.00152120","INCLINATION":"87.5701","RA_OF_ASC_NODE":"21.1544","ARG_OF_PERICENTER":"62.6629","MEAN_ANOMALY":"73.8429","EPHEMERIS_TYPE":"0","CLASSIFICATION_TYPE":"U","NORAD_CAT_ID":"47281","ELEMENT_SET_NO":"999","REV_AT_EPOCH":"175","BSTAR":"-0.43857000000000","MEAN_MOTION_DOT":"-0.01481685","MEAN_MOTION_DDOT":"0.0000000000000","SEMIMAJOR_AXIS":"7113.744","PERIOD":"99.519","APOAPSIS":"746.431","PERIAPSIS":"724.788","OBJECT_TYPE":"PAYLOAD","RCS_SIZE":"MEDIUM","COUNTRY_CODE":"UK","LAUNCH_DATE":"2020-12-18","SITE":"VOSTO","DECAY_DATE":null,"FILE":"2958303","GP_ID":"171560516","TLE_LINE0":"0 ONEWEB-0135","TLE_LINE1":"1 47281U 20100Z   21042.58334491 -.01481685  00000-0 -43857+0 0  9992","TLE_LINE2":"2 47281  87.5701  21.1544 0015212  62.6629  73.8429 14.46956183  1754"},{"CCSDS_OMM_VERS":"2.0","COMMENT":"GENERATED VIA SPACE-TRACK.ORG API","CREATION_DATE":"2021-02-12T03:45:21","ORIGINATOR":"18 SPCS","OBJECT_NAME":"ONEWEB-0135","OBJECT_ID":"2020-100Z","CENTER_NAME":"EARTH","REF_FRAME":"TEME","TIME_SYSTEM":"UTC","MEAN_ELEMENT_THEORY":"SGP4","EPOCH":"2021-02-11T22:00:01.999584","MEAN_MOTION":"14.45914996","ECCENTRICITY":"0.00150570","INCLINATION":"87.5717","RA_OF_ASC_NODE":"21.0587","ARG_OF_PERICENTER":"61.7582","MEAN_ANOMALY":"9.3943","EPHEMERIS_TYPE":"0","CLASSIFICATION_TYPE":"U","NORAD_CAT_ID":"47281","ELEMENT_SET_NO":"999","REV_AT_EPOCH":"180","BSTAR":"-0.43136000000000","MEAN_MOTION_DOT":"-0.01429734","MEAN_MOTION_DDOT":"0.0000000000000","SEMIMAJOR_AXIS":"7117.159","PERIOD":"99.591","APOAPSIS":"749.740","PERIAPSIS":"728.308","OBJECT_TYPE":"PAYLOAD","RCS_SIZE":"MEDIUM","COUNTRY_CODE":"UK","LAUNCH_DATE":"2020-12-18","SITE":"VOSTO","DECAY_DATE":null,"FILE":"2958656","GP_ID":"171589439","TLE_LINE0":"0 ONEWEB-0135","TLE_LINE1":"1 47281U 20100Z   21042.91668981 -.01429734  00000-0 -43136+0 0  9990","TLE_LINE2":"2 47281  87.5717  21.0587 0015057  61.7582   9.3943 14.45914996  1808"},{"CCSDS_OMM_VERS":"2.0","COMMENT":"GENERATED VIA SPACE-TRACK.ORG API","CREATION_DATE":"2021-02-12T18:15:15","ORIGINATOR":"18 SPCS","OBJECT_NAME":"ONEWEB-0135","OBJECT_ID":"2020-100Z","CENTER_NAME":"EARTH","REF_FRAME":"TEME","TIME_SYSTEM":"UTC","MEAN_ELEMENT_THEORY":"SGP4","EPOCH":"2021-02-12T14:00:01.999872","MEAN_MOTION":"14.43891202","ECCENTRICITY":"0.00148960","INCLINATION":"87.5758","RA_OF_ASC_NODE":"20.8672","ARG_OF_PERICENTER":"60.2209","MEAN_ANOMALY":"236.4312","EPHEMERIS_TYPE":"0","CLASSIFICATION_TYPE":"U","NORAD_CAT_ID":"47281","ELEMENT_SET_NO":"999","REV_AT_EPOCH":"174","BSTAR":"-0.46064000000000","MEAN_MOTION_DOT":"-0.01462613","MEAN_MOTION_DDOT":"0.0000000000000","SEMIMAJOR_AXIS":"7123.808","PERIOD":"99.731","APOAPSIS":"756.284","PERIAPSIS":"735.061","OBJECT_TYPE":"PAYLOAD","RCS_SIZE":"MEDIUM","COUNTRY_CODE":"UK","LAUNCH_DATE":"2020-12-18","SITE":"VOSTO","DECAY_DATE":null,"FILE":"2959456","GP_ID":"171630965","TLE_LINE0":"0 ONEWEB-0135","TLE_LINE1":"1 47281U 20100Z   21043.58335648 -.01462613  00000-0 -46064+0 0  9991","TLE_LINE2":"2 47281  87.5758  20.8672 0014896  60.2209 236.4312 14.43891202  1743"},{"CCSDS_OMM_VERS":"2.0","COMMENT":"GENERATED VIA SPACE-TRACK.ORG API","CREATION_DATE":"2021-02-12T21:26:13","ORIGINATOR":"18 SPCS","OBJECT_NAME":"ONEWEB-0135","OBJECT_ID":"2020-100Z","CENTER_NAME":"EARTH","REF_FRAME":"TEME","TIME_SYSTEM":"UTC","MEAN_ELEMENT_THEORY":"SGP4","EPOCH":"2021-02-12T20:00:01.999872","MEAN_MOTION":"14.43082915","ECCENTRICITY":"0.00150020","INCLINATION":"87.5774","RA_OF_ASC_NODE":"20.7961","ARG_OF_PERICENTER":"59.1703","MEAN_ANOMALY":"95.8007","EPHEMERIS_TYPE":"0","CLASSIFICATION_TYPE":"U","NORAD_CAT_ID":"47281","ELEMENT_SET_NO":"999","REV_AT_EPOCH":"850","BSTAR":"-0.43272000000000","MEAN_MOTION_DOT":"-0.01358494","MEAN_MOTION_DDOT":"0.0000000000000","SEMIMAJOR_AXIS":"7126.468","PERIOD":"99.786","APOAPSIS":"759.024","PERIAPSIS":"737.642","OBJECT_TYPE":"PAYLOAD","RCS_SIZE":"MEDIUM","COUNTRY_CODE":"UK","LAUNCH_DATE":"2020-12-18","SITE":"VOSTO","DECAY_DATE":null,"FILE":"2959569","GP_ID":"171633872","TLE_LINE0":"0 ONEWEB-0135","TLE_LINE1":"1 47281U 20100Z   21043.83335648 -.01358494  00000-0 -43272+0 0  9998","TLE_LINE2":"2 47281  87.5774  20.7961 0015002  59.1703  95.8007 14.43082915  8509"},{"CCSDS_OMM_VERS":"2.0","COMMENT":"GENERATED VIA SPACE-TRACK.ORG API","CREATION_DATE":"2021-02-13T02:42:56","ORIGINATOR":"18 SPCS","OBJECT_NAME":"ONEWEB-0135","OBJECT_ID":"2020-100Z","CENTER_NAME":"EARTH","REF_FRAME":"TEME","TIME_SYSTEM":"UTC","MEAN_ELEMENT_THEORY":"SGP4","EPOCH":"2021-02-12T22:00:01.999584","MEAN_MOTION":"14.42877747","ECCENTRICITY":"0.00148680","INCLINATION":"87.5780","RA_OF_ASC_NODE":"20.7723","ARG_OF_PERICENTER":"59.8376","MEAN_ANOMALY":"167.7332","EPHEMERIS_TYPE":"0","CLASSIFICATION_TYPE":"U","NORAD_CAT_ID":"47281","ELEMENT_SET_NO":"999","REV_AT_EPOCH":"179","BSTAR":"-0.45997000000000","MEAN_MOTION_DOT":"-0.01432824","MEAN_MOTION_DDOT":"0.0000000000000","SEMIMAJOR_AXIS":"7127.143","PERIOD":"99.801","APOAPSIS":"759.605","PERIAPSIS":"738.412","OBJECT_TYPE":"PAYLOAD","RCS_SIZE":"MEDIUM","COUNTRY_CODE":"UK","LAUNCH_DATE":"2020-12-18","SITE":"VOSTO","DECAY_DATE":null,"FILE":"2959951","GP_ID":"171664322","TLE_LINE0":"0 ONEWEB-0135","TLE_LINE1":"1 47281U 20100Z   21043.91668981 -.01432824  00000-0 -45997+0 0  9992","TLE_LINE2":"2 47281  87.5780  20.7723 0014868  59.8376 167.7332 14.42877747  1792"}]